DELTA 2 R/B(1)          
1 20453U 90008B   26023.56160602  .00077895  00000+0  10948-2 0  9999
2 20453  35.6054 109.6166 0100635 200.9380 158.7216 15.49685621919113
COSMOS 2058             
1 20465U 90010A   26024.14944984  .00006215  00000+0  37101-3 0  9992
2 20465  82.4653  91.3052 0011383 122.3326 237.9007 15.10905318935516
SL-14 R/B               
1 20466U 90010B   26024.03666991  .00000993  00000+0  11734-3 0  9991
2 20466  82.5045 309.3274 0021423  87.1117 273.2549 14.83523036921862
SL-14 R/B               
1 20511U 90018B   26024.14641262  .00000815  00000+0  99450-4 0  9991
2 20511  82.5201 264.7325 0015086 236.0760 123.9020 14.82097995915985
HST                     
1 20580U 90037B   26024.17050345  .00012636  00000+0  43133-3 0  9997
2 20580  28.4679 343.5341 0001697 343.3078  16.7462 15.28720028766490
SL-16 R/B               
1 20625U 90046B   26024.16129019 -.00000161  00000+0 -58442-4 0  9993
2 20625  70.9993  31.4294 0013989   1.5277 358.5886 14.15007723842095
COSMOS 2084             
1 20663U 90055A   26024.02056323  .00005637  00000+0  40295-3 0  9994
2 20663  62.7903 127.8951 0024477 181.2401 178.8643 15.05339309929599
SL-6 R/B(2)             
1 20666U 90055D   26024.14247076  .00004076  00000+0  31220-3 0  9991
2 20666  62.7838  45.3107 0018317 332.9465  27.0677 15.03327191931495
SL-8 R/B                
1 20775U 90078B   26024.13454767  .00028063  00000+0  84084-3 0  9991
2 20775  82.9048 291.3278 0368229 163.2628 198.1140 14.87486274802672
SL-8 R/B                
1 21088U 91006B   26023.72492649  .00000021  00000+0  55925-5 0  9994
2 21088  82.9408 203.4804 0022925 158.2706 213.6968 13.77492001757886
OKEAN-3                 
1 21397U 91039A   26023.98860801  .00006114  00000+0  43448-3 0  9994
2 21397  82.5161  20.1362 0015885 118.4034 241.8796 15.04426051858319
COSMOS 2151             
1 21422U 91042A   26024.12249073  .00003530  00000+0  28219-3 0  9994
2 21422  82.4980 126.6579 0012021 203.8492 156.2177 14.99908513856517
