CCSDS_OMM_VERS = 2.0
CREATION_DATE  = 
ORIGINATOR     = 

OBJECT_NAME    = DELTA 2 R/B(1)
OBJECT_ID      = 1990-008B
CENTER_NAME    = EARTH
REF_FRAME      = TEME
TIME_SYSTEM    = UTC
MEAN_ELEMENT_THEORY = SGP/SGP4

EPOCH          = 2026-01-23T13:28:42.760128
MEAN_MOTION    = 15.49685621
ECCENTRICITY   = .0100635
INCLINATION    = 35.6054
RA_OF_ASC_NODE = 109.6166
ARG_OF_PERICENTER = 200.9380
MEAN_ANOMALY   = 158.7216

EPHEMERIS_TYPE = 0
CLASSIFICATION_TYPE = U
NORAD_CAT_ID   = 20453
ELEMENT_SET_NO = 999
REV_AT_EPOCH   = 91911
BSTAR          = .10947666E-2
MEAN_MOTION_DOT = .77895E-3
MEAN_MOTION_DDOT = 0

CCSDS_OMM_VERS = 2.0
CREATION_DATE  = 
ORIGINATOR     = 

OBJECT_NAME    = COSMOS 2058
OBJECT_ID      = 1990-010A
CENTER_NAME    = EARTH
REF_FRAME      = TEME
TIME_SYSTEM    = UTC
MEAN_ELEMENT_THEORY = SGP/SGP4

EPOCH          = 2026-01-24T03:35:12.466176
MEAN_MOTION    = 15.10905318
ECCENTRICITY   = .0011383
INCLINATION    = 82.4653
RA_OF_ASC_NODE = 91.3052
ARG_OF_PERICENTER = 122.3326
MEAN_ANOMALY   = 237.9007

EPHEMERIS_TYPE = 0
CLASSIFICATION_TYPE = U
NORAD_CAT_ID   = 20465
ELEMENT_SET_NO = 999
REV_AT_EPOCH   = 93551
BSTAR          = .37101E-3
MEAN_MOTION_DOT = .6215E-4
MEAN_MOTION_DDOT = 0

CCSDS_OMM_VERS = 2.0
CREATION_DATE  = 
ORIGINATOR     = 

OBJECT_NAME    = SL-14 R/B
OBJECT_ID      = 1990-010B
CENTER_NAME    = EARTH
REF_FRAME      = TEME
TIME_SYSTEM    = UTC
MEAN_ELEMENT_THEORY = SGP/SGP4

EPOCH          = 2026-01-24T00:52:48.280224
MEAN_MOTION    = 14.83523036
ECCENTRICITY   = .0021423
INCLINATION    = 82.5045
RA_OF_ASC_NODE = 309.3274
ARG_OF_PERICENTER = 87.1117
MEAN_ANOMALY   = 273.2549

EPHEMERIS_TYPE = 0
CLASSIFICATION_TYPE = U
NORAD_CAT_ID   = 20466
ELEMENT_SET_NO = 999
REV_AT_EPOCH   = 92186
BSTAR          = .11734E-3
MEAN_MOTION_DOT = .993E-5
MEAN_MOTION_DDOT = 0

CCSDS_OMM_VERS = 2.0
CREATION_DATE  = 
ORIGINATOR     = 

OBJECT_NAME    = SL-14 R/B
OBJECT_ID      = 1990-018B
CENTER_NAME    = EARTH
REF_FRAME      = TEME
TIME_SYSTEM    = UTC
MEAN_ELEMENT_THEORY = SGP/SGP4

EPOCH          = 2026-01-24T03:30:50.050368
MEAN_MOTION    = 14.82097995
ECCENTRICITY   = .0015086
INCLINATION    = 82.5201
RA_OF_ASC_NODE = 264.7325
ARG_OF_PERICENTER = 236.0760
MEAN_ANOMALY   = 123.9020

EPHEMERIS_TYPE = 0
CLASSIFICATION_TYPE = U
NORAD_CAT_ID   = 20511
ELEMENT_SET_NO = 999
REV_AT_EPOCH   = 91598
BSTAR          = .9945E-4
MEAN_MOTION_DOT = .815E-5
MEAN_MOTION_DDOT = 0

CCSDS_OMM_VERS = 2.0
CREATION_DATE  = 
ORIGINATOR     = 

OBJECT_NAME    = HST
OBJECT_ID      = 1990-037B
CENTER_NAME    = EARTH
REF_FRAME      = TEME
TIME_SYSTEM    = UTC
MEAN_ELEMENT_THEORY = SGP/SGP4

EPOCH          = 2026-01-24T04:05:31.498080
MEAN_MOTION    = 15.28720028
ECCENTRICITY   = .0001697
INCLINATION    = 28.4679
RA_OF_ASC_NODE = 343.5341
ARG_OF_PERICENTER = 343.3078
MEAN_ANOMALY   = 16.7462

EPHEMERIS_TYPE = 0
CLASSIFICATION_TYPE = U
NORAD_CAT_ID   = 20580
ELEMENT_SET_NO = 999
REV_AT_EPOCH   = 76649
BSTAR          = .43133E-3
MEAN_MOTION_DOT = .12636E-3
MEAN_MOTION_DDOT = 0

CCSDS_OMM_VERS = 2.0
CREATION_DATE  = 
ORIGINATOR     = 

OBJECT_NAME    = SL-16 R/B
OBJECT_ID      = 1990-046B
CENTER_NAME    = EARTH
REF_FRAME      = TEME
TIME_SYSTEM    = UTC
MEAN_ELEMENT_THEORY = SGP/SGP4

EPOCH          = 2026-01-24T03:52:15.472416
MEAN_MOTION    = 14.15007723
ECCENTRICITY   = .0013989
INCLINATION    = 70.9993
RA_OF_ASC_NODE = 31.4294
ARG_OF_PERICENTER = 1.5277
MEAN_ANOMALY   = 358.5886

EPHEMERIS_TYPE = 0
CLASSIFICATION_TYPE = U
NORAD_CAT_ID   = 20625
ELEMENT_SET_NO = 999
REV_AT_EPOCH   = 84209
BSTAR          = -.58442E-4
MEAN_MOTION_DOT = -.161E-5
MEAN_MOTION_DDOT = 0

CCSDS_OMM_VERS = 2.0
CREATION_DATE  = 
ORIGINATOR     = 

OBJECT_NAME    = COSMOS 2084
OBJECT_ID      = 1990-055A
CENTER_NAME    = EARTH
REF_FRAME      = TEME
TIME_SYSTEM    = UTC
MEAN_ELEMENT_THEORY = SGP/SGP4

EPOCH          = 2026-01-24T00:29:36.663072
MEAN_MOTION    = 15.05339309
ECCENTRICITY   = .0024477
INCLINATION    = 62.7903
RA_OF_ASC_NODE = 127.8951
ARG_OF_PERICENTER = 181.2401
MEAN_ANOMALY   = 178.8643

EPHEMERIS_TYPE = 0
CLASSIFICATION_TYPE = U
NORAD_CAT_ID   = 20663
ELEMENT_SET_NO = 999
REV_AT_EPOCH   = 92959
BSTAR          = .40295E-3
MEAN_MOTION_DOT = .5637E-4
MEAN_MOTION_DDOT = 0

CCSDS_OMM_VERS = 2.0
CREATION_DATE  = 
ORIGINATOR     = 

OBJECT_NAME    = SL-6 R/B(2)
OBJECT_ID      = 1990-055D
CENTER_NAME    = EARTH
REF_FRAME      = TEME
TIME_SYSTEM    = UTC
MEAN_ELEMENT_THEORY = SGP/SGP4

EPOCH          = 2026-01-24T03:25:09.473664
MEAN_MOTION    = 15.03327191
ECCENTRICITY   = .0018317
INCLINATION    = 62.7838
RA_OF_ASC_NODE = 45.3107
ARG_OF_PERICENTER = 332.9465
MEAN_ANOMALY   = 27.0677

EPHEMERIS_TYPE = 0
CLASSIFICATION_TYPE = U
NORAD_CAT_ID   = 20666
ELEMENT_SET_NO = 999
REV_AT_EPOCH   = 93149
BSTAR          = .3122E-3
MEAN_MOTION_DOT = .4076E-4
MEAN_MOTION_DDOT = 0

CCSDS_OMM_VERS = 2.0
CREATION_DATE  = 
ORIGINATOR     = 

OBJECT_NAME    = SL-8 R/B
OBJECT_ID      = 1990-078B
CENTER_NAME    = EARTH
REF_FRAME      = TEME
TIME_SYSTEM    = UTC
MEAN_ELEMENT_THEORY = SGP/SGP4

EPOCH          = 2026-01-24T03:13:44.918688
MEAN_MOTION    = 14.87486274
ECCENTRICITY   = .0368229
INCLINATION    = 82.9048
RA_OF_ASC_NODE = 291.3278
ARG_OF_PERICENTER = 163.2628
MEAN_ANOMALY   = 198.1140

EPHEMERIS_TYPE = 0
CLASSIFICATION_TYPE = U
NORAD_CAT_ID   = 20775
ELEMENT_SET_NO = 999
REV_AT_EPOCH   = 80267
BSTAR          = .84084E-3
MEAN_MOTION_DOT = .28063E-3
MEAN_MOTION_DDOT = 0

CCSDS_OMM_VERS = 2.0
CREATION_DATE  = 
ORIGINATOR     = 

OBJECT_NAME    = SL-8 R/B
OBJECT_ID      = 1991-006B
CENTER_NAME    = EARTH
REF_FRAME      = TEME
TIME_SYSTEM    = UTC
MEAN_ELEMENT_THEORY = SGP/SGP4

EPOCH          = 2026-01-23T17:23:53.648736
MEAN_MOTION    = 13.77492001
ECCENTRICITY   = .00229251
INCLINATION    = 82.9408
RA_OF_ASC_NODE = 203.4804
ARG_OF_PERICENTER = 158.2706
MEAN_ANOMALY   = 213.6968

EPHEMERIS_TYPE = 0
CLASSIFICATION_TYPE = U
NORAD_CAT_ID   = 21088
ELEMENT_SET_NO = 999
REV_AT_EPOCH   = 75788
BSTAR          = .5592454E-5
MEAN_MOTION_DOT = .21E-6
MEAN_MOTION_DDOT = 0

CCSDS_OMM_VERS = 2.0
CREATION_DATE  = 
ORIGINATOR     = 

OBJECT_NAME    = OKEAN-3
OBJECT_ID      = 1991-039A
CENTER_NAME    = EARTH
REF_FRAME      = TEME
TIME_SYSTEM    = UTC
MEAN_ELEMENT_THEORY = SGP/SGP4

EPOCH          = 2026-01-23T23:43:35.732064
MEAN_MOTION    = 15.04426051
ECCENTRICITY   = .0015885
INCLINATION    = 82.5161
RA_OF_ASC_NODE = 20.1362
ARG_OF_PERICENTER = 118.4034
MEAN_ANOMALY   = 241.8796

EPHEMERIS_TYPE = 0
CLASSIFICATION_TYPE = U
NORAD_CAT_ID   = 21397
ELEMENT_SET_NO = 999
REV_AT_EPOCH   = 85831
BSTAR          = .43448E-3
MEAN_MOTION_DOT = .6114E-4
MEAN_MOTION_DDOT = 0

CCSDS_OMM_VERS = 2.0
CREATION_DATE  = 
ORIGINATOR     = 

OBJECT_NAME    = COSMOS 2151
OBJECT_ID      = 1991-042A
CENTER_NAME    = EARTH
REF_FRAME      = TEME
TIME_SYSTEM    = UTC
MEAN_ELEMENT_THEORY = SGP/SGP4

EPOCH          = 2026-01-24T02:56:23.199072
MEAN_MOTION    = 14.99908513
ECCENTRICITY   = .0012021
INCLINATION    = 82.4980
RA_OF_ASC_NODE = 126.6579
ARG_OF_PERICENTER = 203.8492
MEAN_ANOMALY   = 156.2177

EPHEMERIS_TYPE = 0
CLASSIFICATION_TYPE = U
NORAD_CAT_ID   = 21422
ELEMENT_SET_NO = 999
REV_AT_EPOCH   = 85651
BSTAR          = .28219E-3
MEAN_MOTION_DOT = .353E-4
MEAN_MOTION_DDOT = 0

